NORAD_CAT_ID,OBJECT_NAME,OBJECT_TYPE,EPOCH,MEAN_MOTION,ECCENTRICITY,INCLINATION,RA_OF_ASC_NODE,ARG_OF_PERICENTER,MEAN_ANOMALY,BSTAR,MEAN_MOTION_DOT,MEAN_MOTION_DDOT,TLE_LINE0,TLE_LINE1,TLE_LINE2,SEMIMAJOR_AXIS,PERIOD,APOGEE,PERIGEE,DECAYED
52124.0,STARLINK-3684,PAYLOAD,2023-03-21 19:52:53,15.08844089,0.0001101,53.2152,264.7663,87.2807,272.8311,9.9742e-05,1.3e-05,0.0,0 STARLINK-3684,1 52124U 22029AN  23080.82839282  .00001300  00000-0  99742-4 0  9993,2 52124  53.2152 264.7663 0001101  87.2807 272.8311 15.08844089 57163,6917.868,95.437,540.495,538.971,0.0
52124.0,STARLINK-3684,PAYLOAD,2023-03-22 05:25:11,15.08844012,0.0001029,53.2148,262.9815,84.5165,275.5945,8.4446e-05,1.057e-05,0.0,0 STARLINK-3684,1 52124U 22029AN  23081.22583270  .00001057  00000-0  84446-4 0  9995,2 52124  53.2148 262.9815 0001029  84.5165 275.5945 15.08844012 57229,6917.868,95.437,540.445,539.021,0.0
52124.0,STARLINK-3684,PAYLOAD,2023-03-22 18:08:17,15.08842365,9.57e-05,53.2137,260.6031,73.6953,286.4145,0.00014867,2.079e-05,0.0,0 STARLINK-3684,1 52124U 22029AN  23081.75575433  .00002079  00000-0  14867-3 0  9999,2 52124  53.2137 260.6031 0000957  73.6953 286.4145 15.08842365 57306,6917.873,95.437,540.4,539.076,0.0
52124.0,STARLINK-3684,PAYLOAD,2023-03-23 05:15:59,15.08842985,0.0001005,53.2142,258.522,62.1534,297.9559,0.00013752,1.902e-05,0.0,0 STARLINK-3684,1 52124U 22029AN  23082.21943446  .00001902  00000-0  13752-3 0  9990,2 52124  53.2142 258.5220 0001005  62.1534 297.9559 15.08842985 57372,6917.871,95.437,540.432,539.041,0.0
52124.0,STARLINK-3684,PAYLOAD,2023-03-23 16:23:41,15.08839447,0.0001359,53.2146,256.4396,72.2615,287.8525,7.7352e-05,9.43e-06,0.0,0 STARLINK-3684,1 52124U 22029AN  23082.68311830  .00000943  00000-0  77352-4 0  9998,2 52124  53.2146 256.4396 0001359  72.2615 287.8525 15.08839447 57449,6917.882,95.438,540.687,538.807,0.0
52124.0,STARLINK-3684,PAYLOAD,2023-03-24 17:49:49,15.08885129,0.0001073,53.2126,251.6802,68.7714,291.3392,0.00081729,0.00012759,0.0,0 STARLINK-3684,1 52124U 22029AN  23083.74293276  .00012759  00000-0  81729-3 0  9999,2 52124  53.2126 251.6802 0001073  68.7714 291.3392 15.08885129 57607,6917.742,95.435,540.35,538.865,0.0
52124.0,STARLINK-3684,PAYLOAD,2023-03-25 11:19:05,15.08825341,0.0001133,53.2159,248.41,83.878,276.2341,-0.0004551,-7.52e-05,0.0,0 STARLINK-3684,1 52124U 22029AN  23084.47158743 -.00007520  00000-0 -45510-3 0  9999,2 52124  53.2159 248.4100 0001133  83.8780 276.2341 15.08825341 57714,6917.925,95.438,540.574,539.006,0.0
52124.0,STARLINK-3684,PAYLOAD,2023-03-25 17:40:37,15.0882561,0.000117,53.2155,247.2193,96.5945,263.518,-0.00055958,-9.179e-05,0.0,0 STARLINK-3684,1 52124U 22029AN  23084.73654379 -.00009179  00000-0 -55958-3 0  9993,2 52124  53.2155 247.2193 0001170  96.5945 263.5180 15.08825610 57757,6917.924,95.438,540.599,538.98,0.0
52124.0,STARLINK-3684,PAYLOAD,2023-03-26 17:31:26,15.08818838,0.0001277,53.2155,242.7598,107.1207,252.9925,0.00046251,7.076e-05,0.0,0 STARLINK-3684,1 52124U 22029AN  23085.73016301  .00007076  00000-0  46251-3 0  9999,2 52124  53.2155 242.7598 0001277 107.1207 252.9925 15.08818838 57904,6917.945,95.439,540.693,538.927,0.0
52124.0,STARLINK-3684,PAYLOAD,2023-03-26 22:17:35,15.08825211,0.0001249,53.2154,241.8666,104.2911,255.822,0.00077161,0.00012009,0.0,0 STARLINK-3684,1 52124U 22029AN  23085.92888513  .00012009  00000-0  77161-3 0  9998,2 52124  53.2154 241.8666 0001249 104.2911 255.8220 15.08825211 57934,6917.926,95.438,540.655,538.927,0.0
52124.0,STARLINK-3684,PAYLOAD,2023-03-27 14:11:26,15.08847474,0.000125,53.2151,238.893,104.7812,255.3319,0.00082686,0.00012899,0.0,0 STARLINK-3684,1 52124U 22029AN  23086.59128449  .00012899  00000-0  82686-3 0  9992,2 52124  53.2151 238.8930 0001250 104.7812 255.3319 15.08847474 58039,6917.858,95.437,540.587,538.858,0.0
52124.0,STARLINK-3684,PAYLOAD,2023-03-27 18:57:36,15.08863927,0.0001222,53.2152,238.0013,106.1706,253.9421,0.0012536,0.00019732,0.0,0 STARLINK-3684,1 52124U 22029AN  23086.79000081  .00019732  00000-0  12536-2 0  9994,2 52124  53.2152 238.0013 0001222 106.1706 253.9421 15.08863927 58063,6917.807,95.436,540.518,538.827,0.0
52124.0,STARLINK-3684,PAYLOAD,2023-03-28 14:02:13,15.08853488,0.0001201,53.2148,234.4323,99.963,260.1498,0.00054253,8.36e-05,0.0,0 STARLINK-3684,1 52124U 22029AN  23087.58488039  .00008360  00000-0  54253-3 0  9993,2 52124  53.2148 234.4323 0001201  99.9630 260.1498 15.08853488 58182,6917.839,95.437,540.535,538.873,0.0
52124.0,STARLINK-3684,PAYLOAD,2023-03-28 15:37:36,15.08854267,0.0001204,53.2148,234.135,99.662,260.4508,0.00056882,8.78e-05,0.0,0 STARLINK-3684,1 52124U 22029AN  23087.65111990  .00008780  00000-0  56882-3 0  9996,2 52124  53.2148 234.1350 0001204  99.6620 260.4508 15.08854267 58190,6917.837,95.437,540.535,538.869,0.0
52124.0,STARLINK-3684,PAYLOAD,2023-03-28 18:48:22,15.08858977,0.0001032,53.2139,233.5408,78.2554,281.8554,0.0008137,0.00012693,0.0,0 STARLINK-3684,1 52124U 22029AN  23087.78359914  .00012693  00000-0  81370-3 0  9998,2 52124  53.2139 233.5408 0001032  78.2554 281.8554 15.08858977 58218,6917.822,95.436,540.401,538.973,0.0
52124.0,STARLINK-3684,PAYLOAD,2023-03-29 02:45:18,15.08844083,0.0001226,53.2143,232.054,101.1544,258.9586,0.00044529,6.807e-05,0.0,0 STARLINK-3684,1 52124U 22029AN  23088.11479795  .00006807  00000-0  44529-3 0  9991,2 52124  53.2143 232.0540 0001226 101.1544 258.9586 15.08844083 58262,6917.868,95.437,540.581,538.885,0.0
52124.0,STARLINK-3684,PAYLOAD,2023-03-29 09:06:51,15.08855233,0.0001473,53.214,230.8651,85.5448,274.5712,0.00043101,6.581e-05,0.0,0 STARLINK-3684,1 52124U 22029AN  23088.37976113  .00006581  00000-0  43101-3 0  9999,2 52124  53.2140 230.8651 0001473  85.5448 274.5712 15.08855233 58309,6917.834,95.437,540.718,538.68,0.0
52124.0,STARLINK-3684,PAYLOAD,2023-03-29 17:03:47,15.0884625,0.0001335,53.2142,229.3776,86.4818,273.6327,0.00088354,0.00013804,0.0,0 STARLINK-3684,1 52124U 22029AN  23088.71096218  .00013804  00000-0  88354-3 0  9991,2 52124  53.2142 229.3776 0001335  86.4818 273.6327 15.08846250 58356,6917.861,95.437,540.65,538.803,0.0
52124.0,STARLINK-3684,PAYLOAD,2023-03-29 21:49:55,15.08870762,0.0001178,53.2133,228.484,86.7784,273.3343,0.0014172,0.00022358,0.0,0 STARLINK-3684,1 52124U 22029AN  23088.90967573  .00022358  00000-0  14172-2 0  9993,2 52124  53.2133 228.4840 0001178  86.7784 273.3343 15.08870762 58381,6917.786,95.436,540.466,538.836,0.0
52124.0,STARLINK-3684,PAYLOAD,2023-03-30 20:05:20,15.0887479,0.0001636,53.2137,224.321,72.047,288.07,0.0026794,0.00042654,0.0,0 STARLINK-3684,1 52124U 22029AN  23089.83703873  .00042654  00000-0  26794-2 0  9991,2 52124  53.2137 224.3210 0001636  72.0470 288.0700 15.08874790 58521,6917.774,95.435,540.771,538.507,0.0
52124.0,STARLINK-3684,PAYLOAD,2023-03-31 02:26:52,15.0885387,0.0001182,53.2138,223.1342,78.4902,281.6223,0.00065744,0.00010195,0.0,0 STARLINK-3684,1 52124U 22029AN  23090.10199881  .00010195  00000-0  65744-3 0  9995,2 52124  53.2138 223.1342 0001182  78.4902 281.6223 15.08853870 58560,6917.838,95.437,540.521,538.885,0.0
52124.0,STARLINK-3684,PAYLOAD,2023-03-31 23:06:52,15.08864511,0.0001109,53.2148,219.2645,130.0789,230.03,0.0011354,0.0001784,0.0,0 STARLINK-3684,1 52124U 22029AN  23090.96311060  .00017840  00000-0  11354-2 0  9995,2 52124  53.2148 219.2645 0001109 130.0789 230.0300 15.08864511 58692,6917.805,95.436,540.438,538.903,0.0
52124.0,STARLINK-3684,PAYLOAD,2023-04-01 13:25:22,15.08809683,0.0001414,53.2152,216.5918,68.3204,291.7939,0.0011647,0.00018281,0.0,0 STARLINK-3684,1 52124U 22029AN  23091.55929365  .00018281  00000-0  11647-2 0  9999,2 52124  53.2152 216.5918 0001414  68.3204 291.7939 15.08809683 58785,6917.973,95.439,540.816,538.86,0.0
52124.0,STARLINK-3684,PAYLOAD,2023-04-01 15:00:46,15.08816476,0.0001539,53.2151,216.2937,67.6831,292.4324,0.001518,0.00023938,0.0,0 STARLINK-3684,1 52124U 22029AN  23091.62553486  .00023938  00000-0  15180-2 0  9995,2 52124  53.2151 216.2937 0001539  67.6831 292.4324 15.08816476 58793,6917.952,95.439,540.882,538.753,0.0
52124.0,STARLINK-3684,PAYLOAD,2023-04-02 13:16:09,15.08880848,0.0001556,53.2156,212.1296,68.6838,291.432,0.0024634,0.00039179,0.0,0 STARLINK-3684,1 52124U 22029AN  23092.55289185  .00039179  00000-0  24634-2 0  9998,2 52124  53.2156 212.1296 0001556  68.6838 291.4320 15.08880848 58933,6917.756,95.435,540.697,538.544,0.0
52124.0,STARLINK-3684,PAYLOAD,2023-04-02 14:51:32,15.08886546,0.0001573,53.2155,211.832,69.9068,290.2093,0.0024811,0.00039471,0.0,0 STARLINK-3684,1 52124U 22029AN  23092.61912970  .00039471  00000-0  24811-2 0  9992,2 52124  53.2155 211.8320 0001573  69.9068 290.2093 15.08886546 58940,6917.738,95.435,540.691,538.515,0.0
52124.0,STARLINK-3684,PAYLOAD,2023-04-02 18:02:18,15.08897439,0.0001628,53.2154,211.238,58.0608,302.0542,0.0023594,0.00037521,0.0,0 STARLINK-3684,1 52124U 22029AN  23092.75160474  .00037521  00000-0  23594-2 0  9992,2 52124  53.2154 211.2380 0001628  58.0608 302.0542 15.08897439 58965,6917.705,95.434,540.696,538.444,0.0
52124.0,STARLINK-3684,PAYLOAD,2023-04-03 00:23:51,15.08863645,0.0001534,53.215,210.0477,60.8427,299.2719,3.8654e-05,3.28e-06,0.0,0 STARLINK-3684,1 52124U 22029AN  23093.01656439  .00000328  00000-0  38654-4 0  9993,2 52124  53.2150 210.0477 0001534  60.8427 299.2719 15.08863645 59002,6917.808,95.436,540.734,538.612,0.0
52124.0,STARLINK-3684,PAYLOAD,2023-04-03 11:31:32,15.08861033,0.0001569,53.2163,207.9696,79.0792,281.0377,0.0010108,0.00015845,0.0,0 STARLINK-3684,1 52124U 22029AN  23093.48024226  .00015845  00000-0  10108-2 0  9999,2 52124  53.2163 207.9696 0001569  79.0792 281.0377 15.08861033 59074,6917.816,95.436,540.767,538.596,0.0
52124.0,STARLINK-3684,PAYLOAD,2023-04-03 16:17:42,15.08869699,0.0001597,53.2164,207.0777,79.6715,280.4458,0.0018307,0.00028992,0.0,0 STARLINK-3684,1 52124U 22029AN  23093.67895990  .00028992  00000-0  18307-2 0  9990,2 52124  53.2164 207.0777 0001597  79.6715 280.4458 15.08869699 59101,6917.79,95.436,540.759,538.55,0.0
